IRIDIUM 155             
1 43573U 18061E   24272.86887003  .00000702  00000+0  24356-3 0  9996
2 43573  86.3966 318.4387 0002203  99.9363 260.2082 14.34218104323581
IRIDIUM 154             
1 43574U 18061F   24272.57076650  .00000054  00000+0  12236-4 0  9998
2 43574  86.3972 318.6662 0002121  91.3235 268.8204 14.34218881323593
IRIDIUM 163             
1 43575U 18061G   24272.41220322  .00000166  00000+0  52043-4 0  9993
2 43575  86.3969 318.6681 0002079  97.0600 263.0832 14.34216096323547
IRIDIUM 156             
1 43576U 18061H   24272.87521367  .00000501  00000+0  17172-3 0  9993
2 43576  86.3964 318.4806 0002305 102.1712 257.9742 14.34215791323604
IRIDIUM 164             
1 43577U 18061J   24272.85618639 -.00000083  00000+0 -36582-4 0  9995
2 43577  86.3964 318.5185 0002239  91.2959 268.8493 14.34217089323643
IRIDIUM 159             
1 43578U 18061K   24272.54539343  .00000493  00000+0  16881-3 0  9998
2 43578  86.3968 318.5989 0002317  94.4280 265.7180 14.34221536323561
IRIDIUM 180             
1 43922U 19002A   24272.96350192  .00000249  00000+0  81850-4 0  9994
2 43922  86.3921 255.2525 0002289  84.0739 276.0717 14.34220954299238
IRIDIUM 176             
1 43923U 19002B   24272.97251090  .00001329  00000+0  20680-3 0  9996
2 43923  86.6049 255.2618 0002712  82.5077 277.6449 14.72256492307119
IRIDIUM 168             
1 43924U 19002C   24272.39901470  .00000078  00000+0  20677-4 0  9994
2 43924  86.3922 255.5483 0002314  86.5322 273.6139 14.34218226299130
IRIDIUM 173             
1 43925U 19002D   24272.87470458  .00000261  00000+0  86278-4 0  9998
2 43925  86.3919 255.2637 0002225  84.7332 275.4118 14.34220378299180
IRIDIUM 169             
1 43926U 19002E   24272.48518864  .00000397  00000+0  12342-3 0  9990
2 43926  86.4168 287.0785 0000841 145.4352 214.6901 14.38609947300123
IRIDIUM 172             
1 43927U 19002F   24272.93813526 -.00000011  00000+0 -11008-4 0  9998
2 43927  86.3920 255.2435 0002218  88.8960 271.2490 14.34217727299208
IRIDIUM 175             
1 43928U 19002G   24272.35526813  .00003253  00000+0  51198-3 0  9997
2 43928  86.1517 222.8504 0002616  87.3756 272.7759 14.72235899307010
IRIDIUM 171             
1 43929U 19002H   24272.91910907 -.00000143  00000+0 -58181-4 0  9998
2 43929  86.3929 255.4886 0002475  90.7178 269.4302 14.34216136299191
IRIDIUM 170             
1 43930U 19002J   24272.91072395  .00000549  00000+0  83148-4 0  9999
2 43930  86.6049 255.2928 0002619  87.2681 272.8835 14.72252901307117
IRIDIUM 167             
1 43931U 19002K   24272.91276202  .00000232  00000+0  75633-4 0  9992
2 43931  86.3918 255.2707 0002373  90.3677 269.7790 14.34219785299196
IRIDIUM 181             
1 56726U 23068S   24272.52740293  .00000931  00000+0  26928-3 0  9996
2 56726  86.8621 314.2271 0002504  98.4517 261.6968 14.43588711 72047
IRIDIUM 177             
1 56727U 23068T   24272.92627783  .00001724  00000+0  22349-3 0  9993
2 56727  86.1919 266.0856 0002210  99.6099 260.5372 14.80225511 73726
IRIDIUM 174             
1 56728U 23068U   24272.92100803  .00001726  00000+0  22378-3 0  9997
2 56728  86.1925 266.2003 0002390  97.9984 262.1508 14.80209249 73722
IRIDIUM 178             
1 56729U 23068V   24272.78004242  .00000717  00000+0  90835-4 0  9995
2 56729  86.5727 288.6575 0002626  92.9776 267.1746 14.80232278 73700
IRIDIUM 179             
1 56730U 23068W   24272.90981254  .00001387  00000+0  17909-3 0  9992
2 56730  86.6740 294.0471 0002019 101.0165 259.1284 14.80239656 73721
